H1 CPF 01  gfz 2022 04 30 00  6201 tandemx   
H2 1003001  6202 36605    2022 04 30 00 59 42 2022 05 05 00 00 42   120 1 1  0 0 0
H9
10 0 59700  82782.000000  0   -1994492.167   6345275.463   1785987.772
10 0 59700  82902.000000  0   -1873665.598   6567304.722    899150.744
10 0 59700  83022.000000  0   -1717226.531   6672095.941     -3519.945
10 0 59700  83142.000000  0   -1529994.968   6657284.481   -906130.086
10 0 59700  83262.000000  0   -1317353.853   6522710.598  -1792802.964
10 0 59700  83382.000000  0   -1085112.286   6270422.904  -2647969.352
10 0 59700  83502.000000  0    -839362.544   5904636.963  -3456645.402
10 0 59700  83622.000000  0    -586333.875   5431654.255  -4204696.161
10 0 59700  83742.000000  0    -332246.744   4859741.691  -4879081.584
10 0 59700  83862.000000  0     -83170.538   4198975.268  -5468078.681
10 0 59700  83982.000000  0     155112.292   3461052.330  -5961477.971
10 0 59700  84102.000000  0     377232.262   2659075.519  -6350750.478
10 0 59700  84222.000000  0     578345.973   1807315.025  -6629183.021
10 0 59700  84342.000000  0     754235.575    920954.689  -6791983.148
10 0 59700  84462.000000  0     901392.381     15823.984  -6836353.024
10 0 59700  84582.000000  0    1017083.605   -891879.660  -6761532.125
10 0 59700  84702.000000  0    1099401.169  -1785873.936  -6568807.131
10 0 59700  84822.000000  0    1147292.465  -2650074.925  -6261491.755
10 0 59700  84942.000000  0    1160573.389  -3468880.050  -5844878.190
10 0 59700  85062.000000  0    1139921.460  -4227448.620  -5326155.997
10 0 59700  85182.000000  0    1086850.593  -4911971.169  -4714297.785
10 0 59700  85302.000000  0    1003667.761  -5509924.737  -4019916.035
10 0 59700  85422.000000  0     893410.979  -6010310.551  -3255089.118
10 0 59700  85542.000000  0     759770.445  -6403866.857  -2433158.566
10 0 59700  85662.000000  0     606994.536  -6683252.968  -1568500.857
10 0 59700  85782.000000  0     439782.008  -6843199.070   -676275.679
10 0 59700  85902.000000  0     263162.777  -6880615.962    227843.744
10 0 59700  86022.000000  0      82370.573  -6794662.533   1127951.916
10 0 59700  86142.000000  0     -97289.384  -6586769.280   2008198.998
10 0 59700  86262.000000  0    -270574.462  -6260615.837   2853079.790
10 0 59700  86382.000000  0    -432436.661  -5822061.374   3647716.629
10 0 59701    102.000000  0    -578149.364  -5279030.150   4378126.344
10 0 59701    222.000000  0    -703425.814  -4641359.970   5031469.021
10 0 59701    342.000000  0    -804525.845  -3920614.074   5596273.965
10 0 59701    462.000000  0    -878348.986  -3129861.876   6062639.807
10 0 59701    582.000000  0    -922511.751  -2283431.917   6422402.983
10 0 59701    702.000000  0    -935407.327  -1396646.912   6669272.664
10 0 59701    822.000000  0    -916247.470   -485544.373   6798935.537
10 0 59701    942.000000  0    -865086.420    433414.940   6809127.259
10 0 59701   1062.000000  0    -782824.763   1343644.359   6699669.650
10 0 59701   1182.000000  0    -671193.119   2228730.361   6472473.623
10 0 59701   1302.000000  0    -532716.731   3072728.250   6131507.799
10 0 59701   1422.000000  0    -370661.719   3860450.371   5682733.634
10 0 59701   1542.000000  0    -188963.804   4577742.544   5134006.258
10 0 59701   1662.000000  0       7859.808   5211743.704   4494943.705
10 0 59701   1782.000000  0     214813.764   5751125.487   3776762.249
10 0 59701   1902.000000  0     426540.226   6186300.679   2992083.332
10 0 59701   2022.000000  0     637445.057   6509608.763   2154715.614
10 0 59701   2142.000000  0     841833.465   6715460.566   1279404.560
10 0 59701   2262.000000  0    1034048.285   6800440.434    381567.107
10 0 59701   2382.000000  0    1208609.980   6763365.784   -522987.697
10 0 59701   2502.000000  0    1360353.213   6605301.737  -1418345.697
10 0 59701   2622.000000  0    1484556.542   6329530.970  -2288775.223
10 0 59701   2742.000000  0    1577062.616   5941480.183  -3119010.145
10 0 59701   2862.000000  0    1634385.790   5448604.315  -3894522.264
10 0 59701   2982.000000  0    1653804.848   4860231.767  -4601776.856
10 0 59701   3102.000000  0    1633438.423   4187375.211  -5228465.624
10 0 59701   3222.000000  0    1572301.562   3442515.036  -5763713.440
10 0 59701   3342.000000  0    1470342.953   2639359.943  -6198258.100
10 0 59701   3462.000000  0    1328461.446   1792589.093  -6524598.822
10 0 59701   3582.000000  0    1148503.152    917583.755  -6737113.910
10 0 59701   3702.000000  0     933238.784     30150.603  -6832148.661
10 0 59701   3822.000000  0     686321.220   -853759.174  -6808070.920
10 0 59701   3942.000000  0     412224.181  -1718329.952  -6665294.503
10 0 59701   4062.000000  0     116163.794  -2548155.935  -6406272.308
10 0 59701   4182.000000  0    -195997.253  -3328509.719  -6035461.126
10 0 59701   4302.000000  0    -517861.820  -4045601.477  -5559252.628
10 0 59701   4422.000000  0    -842623.633  -4686822.205  -4985873.784
10 0 59701   4542.000000  0   -1163205.441  -5240969.810  -4325256.783
10 0 59701   4662.000000  0   -1472407.692  -5698452.741  -3588877.732
10 0 59701   4782.000000  0   -1763064.282  -6051466.202  -2789565.855
10 0 59701   4902.000000  0   -2028202.154  -6294137.055  -1941286.053
10 0 59701   5022.000000  0   -2261201.289  -6422634.106  -1058897.068
10 0 59701   5142.000000  0   -2455950.878  -6435239.514   -157888.824
10 0 59701   5262.000000  0   -2606997.865  -6332377.808    745895.518
10 0 59701   5382.000000  0   -2709683.538  -6116601.518   1636546.133
10 0 59701   5502.000000  0   -2760264.595  -5792533.730   2498375.812
10 0 59701   5622.000000  0   -2756015.306  -5366768.520   3316205.075
10 0 59701   5742.000000  0   -2695307.881  -4847732.394   4075636.460
10 0 59701   5862.000000  0   -2577669.619  -4245510.856   4763312.206
10 0 59701   5982.000000  0   -2403816.389  -3571644.771   5367151.010
10 0 59701   6102.000000  0   -2175660.469  -2838900.184   5876559.446
10 0 59701   6222.000000  0   -1896292.640  -2061019.298   6282613.246
10 0 59701   6342.000000  0   -1569939.941  -1252458.464   6578208.796
10 0 59701   6462.000000  0   -1201900.030   -428115.269   6758181.957
10 0 59701   6582.000000  0    -798454.527    396947.604   6819390.875
10 0 59701   6702.000000  0    -366762.093   1207776.297   6760767.801
10 0 59701   6822.000000  0      85268.673   1989796.646   6583337.139
10 0 59701   6942.000000  0     549124.042   2729076.159   6290198.466
10 0 59701   7062.000000  0    1015844.674   3412572.248   5886475.414
10 0 59701   7182.000000  0    1476197.385   4028364.725   5379231.645
10 0 59701   7302.000000  0    1920856.733   4565868.263   4777353.271
10 0 59701   7422.000000  0    2340593.996   5016021.151   4091398.619
10 0 59701   7542.000000  0    2726468.473   5371444.148   3333416.682
10 0 59701   7662.000000  0    3070018.008   5626569.957   2516739.433
10 0 59701   7782.000000  0    3363445.061   5777739.735   1655744.296
10 0 59701   7902.000000  0    3599790.531   5823257.400    765595.010
10 0 59701   8022.000000  0    3773092.550   5763406.089   -138032.066
10 0 59701   8142.000000  0    3878527.362   5600423.737  -1039232.749
10 0 59701   8262.000000  0    3912526.902   5338439.283  -1922162.948
10 0 59701   8382.000000  0    3872871.396   4983371.709  -2771324.888
10 0 59701   8502.000000  0    3758753.498   4542793.639  -3571845.003
10 0 59701   8622.000000  0    3570812.823   4025763.663  -4309736.591
10 0 59701   8742.000000  0    3311141.776   3442633.772  -4972141.972
10 0 59701   8862.000000  0    2983262.508   2804835.813  -5547552.049
10 0 59701   8982.000000  0    2592075.514   2124651.727  -6025997.648
10 0 59701   9102.000000  0    2143782.173   1414974.079  -6399211.738
10 0 59701   9222.000000  0    1645783.077    689061.231  -6660759.816
10 0 59701   9342.000000  0    1106555.682    -39707.046  -6806139.807
10 0 59701   9462.000000  0     535510.477   -758071.637  -6832852.679
10 0 59701   9582.000000  0     -57171.230  -1453130.101  -6740439.081
10 0 59701   9702.000000  0    -660713.680  -2112561.369  -6530485.619
10 0 59701   9822.000000  0   -1263937.535  -2724839.028  -6206602.154
10 0 59701   9942.000000  0   -1855462.097  -3279430.539  -5774366.108
10 0 59701  10062.000000  0   -2423914.997  -3766977.510  -5241236.280
10 0 59701  10182.000000  0   -2958148.395  -4179456.909  -4616436.872
10 0 59701  10302.000000  0   -3447457.950  -4510319.144  -3910808.839
10 0 59701  10422.000000  0   -3881798.406  -4754598.788  -3136631.146
10 0 59701  10542.000000  0   -4251992.571  -4908996.535  -2307414.399
10 0 59701  10662.000000  0   -4549928.657  -4971929.275  -1437668.523
10 0 59701  10782.000000  0   -4768740.610  -4943546.722   -542648.537
10 0 59701  10902.000000  0   -4902966.516  -4825713.604    361916.915
10 0 59701  11022.000000  0   -4948680.824  -4621957.241   1260109.253
10 0 59701  11142.000000  0   -4903595.917  -4337380.287   2136109.752
10 0 59701  11262.000000  0   -4767130.018  -3978541.128   2974487.313
10 0 59701  11382.000000  0   -4540440.493  -3553305.677   3760477.979
10 0 59701  11502.000000  0   -4226421.823  -3070674.599   4480251.054
10 0 59701  11622.000000  0   -3829667.281  -2540589.329   5121155.508
10 0 59701  11742.000000  0   -3356397.442  -1973723.914   5671940.705
10 0 59701  11862.000000  0   -2814358.090  -1381267.916   6122951.126
10 0 59701  11982.000000  0   -2212688.046   -774702.873   6466292.395
10 0 59701  12102.000000  0   -1561759.328   -165576.742   6695963.885
10 0 59701  12222.000000  0    -872994.214    434715.874   6807955.806
10 0 59701  12342.000000  0    -158664.413   1015145.242   6800314.593
10 0 59701  12462.000000  0     568327.285   1565248.701   6673175.183
10 0 59701  12582.000000  0    1294679.648   2075319.430   6428758.875
10 0 59701  12702.000000  0    2006935.699   2536577.731   6071336.102
10 0 59701  12822.000000  0    2691731.408   2941322.815   5607156.924
99
